<?xml version="1.0" encoding="UTF-8"?>
<kml xmlns="http://www.opengis.net/kml/2.2">
  <Document>
    <name>Bitropix</name>
    <description>Bitropix - IT Services &amp; Digital Marketing Agency in Delhi</description>
    <Placemark>
      <name>Bitropix Office</name>
      <description>Bitropix IT Services &amp; Digital Marketing Agency, New Delhi</description>
      <Point>
        <coordinates>77.209,28.6139,0</coordinates>
      </Point>
      <address>New Delhi, Delhi, India</address>
      <phoneNumber>+91-9318454571</phoneNumber>
    </Placemark>
  </Document>
</kml>
